NORAD_CAT_ID,OBJECT_NAME,OBJECT_TYPE,EPOCH,MEAN_MOTION,ECCENTRICITY,INCLINATION,RA_OF_ASC_NODE,ARG_OF_PERICENTER,MEAN_ANOMALY,BSTAR,MEAN_MOTION_DOT,MEAN_MOTION_DDOT,TLE_LINE0,TLE_LINE1,TLE_LINE2,SEMIMAJOR_AXIS,PERIOD,APOGEE,PERIGEE,DECAYED
53431.0,STARLINK-4548,PAYLOAD,2024-05-01 16:16:26,15.08850007,0.0001353,53.2171,262.9579,76.046,284.0682,0.00012861,1.76e-05,0.0,0 STARLINK-4548,1 53431U 22097AV  24122.67808670  .00001760  00000-0  12861-3 0  9994,2 53431  53.2171 262.9579 0001353  76.0460 284.0682 15.08850007 96102,6917.85,95.437,540.651,538.779,0.0
53431.0,STARLINK-4548,PAYLOAD,2024-05-02 01:48:45,15.08845002,8.95e-05,53.2151,261.1756,58.4355,301.6725,7.4586e-05,9e-06,0.0,0 STARLINK-4548,1 53431U 22097AV  24123.07552907  .00000900  00000-0  74586-4 0  9996,2 53431  53.2151 261.1756 0000895  58.4355 301.6725 15.08845002 96164,6917.865,95.437,540.349,539.111,0.0
53431.0,STARLINK-4548,PAYLOAD,2024-05-02 12:56:28,15.08832981,0.0001228,53.2178,259.0963,92.2184,267.8949,-1.8448e-06,-3.17e-06,0.0,0 STARLINK-4548,1 53431U 22097AV  24123.53922063 -.00000317  00000-0 -18448-5 0  9991,2 53431  53.2178 259.0963 0001228  92.2184 267.8949 15.08832981 96237,6917.902,95.438,540.616,538.917,0.0
53431.0,STARLINK-4548,PAYLOAD,2024-05-02 14:31:51,15.08834199,0.0001366,53.2181,258.7988,103.2626,256.8518,3.4037e-05,2.54e-06,0.0,0 STARLINK-4548,1 53431U 22097AV  24123.60545911  .00000254  00000-0  34037-4 0  9991,2 53431  53.2181 258.7988 0001366 103.2626 256.8518 15.08834199 96728,6917.898,95.438,540.708,538.818,0.0
53431.0,STARLINK-4548,PAYLOAD,2024-05-03 01:39:33,15.08841138,0.0001289,53.2181,256.7175,98.9994,261.1144,5.6006e-05,6.04e-06,0.0,0 STARLINK-4548,1 53431U 22097AV  24124.06913436  .00000604  00000-0  56006-4 0  9992,2 53431  53.2181 256.7175 0001289  98.9994 261.1144 15.08841138 96316,6917.877,95.437,540.634,538.85,0.0
53431.0,STARLINK-4548,PAYLOAD,2024-05-03 12:47:14,15.08850721,0.0001226,53.2151,254.6334,89.1775,270.9358,0.00017414,2.485e-05,0.0,0 STARLINK-4548,1 53431U 22097AV  24124.53280632  .00002485  00000-0  17414-3 0  9997,2 53431  53.2151 254.6334 0001226  89.1775 270.9358 15.08850721 96387,6917.848,95.437,540.561,538.864,0.0
53431.0,STARLINK-4548,PAYLOAD,2024-05-03 14:22:37,15.08852839,0.0001213,53.2159,254.3362,88.1039,272.0093,0.00021444,3.128e-05,0.0,0 STARLINK-4548,1 53431U 22097AV  24124.59904557  .00003128  00000-0  21444-3 0  9995,2 53431  53.2159 254.3362 0001213  88.1039 272.0093 15.08852839 96876,6917.841,95.437,540.545,538.867,0.0
53431.0,STARLINK-4548,PAYLOAD,2024-05-03 15:58:00,15.08855938,7.63e-05,53.2147,254.0387,85.0961,275.0118,0.00033256,5.011e-05,0.0,0 STARLINK-4548,1 53431U 22097AV  24124.66528450  .00005011  00000-0  33256-3 0  9994,2 53431  53.2147 254.0387 0000763  85.0961 275.0118 15.08855938 96881,6917.832,95.437,540.225,539.169,0.0
53431.0,STARLINK-4548,PAYLOAD,2024-05-04 01:30:19,15.0884176,0.000137,53.2154,252.253,89.3417,270.7732,0.00012726,1.738e-05,0.0,0 STARLINK-4548,1 53431U 22097AV  24125.06273040  .00001738  00000-0  12726-3 0  9992,2 53431  53.2154 252.2530 0001370  89.3417 270.7732 15.08841760 96463,6917.875,95.437,540.688,538.792,0.0
53431.0,STARLINK-4548,PAYLOAD,2024-05-04 12:38:02,15.088275,0.0001048,53.2158,250.1733,103.8128,256.2981,-0.00011694,-2.148e-05,0.0,0 STARLINK-4548,1 53431U 22097AV  24125.52641768 -.00002148  00000-0 -11694-3 0  9990,2 53431  53.2158 250.1733 0001048 103.8128 256.2981 15.08827500 96531,6917.919,95.438,540.509,539.059,0.0
53431.0,STARLINK-4548,PAYLOAD,2024-05-04 17:24:11,15.08832865,0.0001065,53.215,249.2807,101.8293,258.2818,-3.6866e-06,-3.46e-06,0.0,0 STARLINK-4548,1 53431U 22097AV  24125.72513501 -.00000346  00000-0 -36866-5 0  9993,2 53431  53.2150 249.2807 0001065 101.8293 258.2818 15.08832865 96568,6917.902,95.438,540.504,539.03,0.0
53431.0,STARLINK-4548,PAYLOAD,2024-05-05 14:04:12,15.08856827,0.000104,53.2154,245.4137,102.3489,257.7619,0.0013017,0.00020499,0.0,0 STARLINK-4548,1 53431U 22097AV  24126.58625689  .00020499  00000-0  13017-2 0  9998,2 53431  53.2154 245.4137 0001040 102.3489 257.7619 15.08856827 97177,6917.829,95.436,540.413,538.975,0.0
53431.0,STARLINK-4548,PAYLOAD,2024-05-05 15:39:35,15.08861201,0.0001028,53.2156,245.1161,101.2812,258.8295,0.0014009,0.00022091,0.0,0 STARLINK-4548,1 53431U 22097AV  24126.65249598  .00022091  00000-0  14009-2 0  9999,2 53431  53.2156 245.1161 0001028 101.2812 258.8295 15.08861201 96709,6917.816,95.436,540.392,538.969,0.0
53431.0,STARLINK-4548,PAYLOAD,2024-05-06 01:11:54,15.08853174,0.000143,53.2155,243.3344,69.735,290.3796,0.00081925,0.00012779,0.0,0 STARLINK-4548,1 53431U 22097AV  24127.04993693  .00012779  00000-0  81925-3 0  9999,2 53431  53.2155 243.3344 0001430  69.7350 290.3796 15.08853174 96766,6917.84,95.437,540.694,538.716,0.0
53431.0,STARLINK-4548,PAYLOAD,2024-05-06 13:54:59,15.08855822,0.000112,53.214,240.9529,88.7729,271.3392,0.00042964,6.559e-05,0.0,0 STARLINK-4548,1 53431U 22097AV  24127.57985139  .00006559  00000-0  42964-3 0  9992,2 53431  53.2140 240.9529 0001120  88.7729 271.3392 15.08855822 96847,6917.832,95.437,540.472,538.922,0.0
53431.0,STARLINK-4548,PAYLOAD,2024-05-07 13:45:46,15.08844224,0.0001197,53.2161,236.4934,92.6532,267.4597,3.7368e-05,3.07e-06,0.0,0 STARLINK-4548,1 53431U 22097AV  24128.57345182  .00000307  00000-0  37368-4 0  9999,2 53431  53.2161 236.4934 0001197  92.6532 267.4597 15.08844224 96993,6917.867,95.437,540.561,538.904,0.0
53431.0,STARLINK-4548,PAYLOAD,2024-05-07 16:56:32,15.08846292,0.0001158,53.2172,235.8972,102.7765,257.3356,6.7049e-05,7.8e-06,0.0,0 STARLINK-4548,1 53431U 22097AV  24128.70593034  .00000780  00000-0  67049-4 0  9999,2 53431  53.2172 235.8972 0001158 102.7765 257.3356 15.08846292 97492,6917.861,95.437,540.527,538.925,0.0
53431.0,STARLINK-4548,PAYLOAD,2024-05-08 13:36:33,15.08850837,0.0001017,53.2156,232.0321,88.2569,271.854,0.00028031,4.177e-05,0.0,0 STARLINK-4548,1 53431U 22097AV  24129.56705116  .00004177  00000-0  28031-3 0  9991,2 53431  53.2156 232.0321 0001017  88.2569 271.8540 15.08850837 97626,6917.847,95.437,540.416,539.009,0.0
53431.0,STARLINK-4548,PAYLOAD,2024-05-09 13:27:19,15.08857795,0.0001037,53.2161,227.5724,90.4537,269.6574,0.00046708,7.157e-05,0.0,0 STARLINK-4548,1 53431U 22097AV  24130.56064573  .00007157  00000-0  46708-3 0  9990,2 53431  53.2161 227.5724 0001037  90.4537 269.6574 15.08857795 97295,6917.826,95.436,540.408,538.974,0.0
53431.0,STARLINK-4548,PAYLOAD,2024-05-09 22:59:38,15.08854798,7.87e-05,53.2146,225.7888,88.6816,271.4267,0.0003504,5.295e-05,0.0,0 STARLINK-4548,1 53431U 22097AV  24130.95808439  .00005295  00000-0  35040-3 0  9998,2 53431  53.2146 225.7888 0000787  88.6816 271.4267 15.08854798 97356,6917.835,95.437,540.245,539.156,0.0
53431.0,STARLINK-4548,PAYLOAD,2024-05-10 13:18:07,15.08837911,0.0001064,53.2163,223.1143,90.4685,269.6429,-1.3801e-05,-5.07e-06,0.0,0 STARLINK-4548,1 53431U 22097AV  24131.55425186 -.00000507  00000-0 -13801-4 0  9994,2 53431  53.2163 223.1143 0001064  90.4685 269.6429 15.08837911 97442,6917.887,95.438,540.488,539.016,0.0
53431.0,STARLINK-4548,PAYLOAD,2024-05-11 05:11:58,15.0885115,0.0001089,53.2168,220.1407,89.8634,270.2483,0.00037938,5.757e-05,0.0,0 STARLINK-4548,1 53431U 22097AV  24132.21664804  .00005757  00000-0  37938-3 0  9996,2 53431  53.2168 220.1407 0001089  89.8634 270.2483 15.08851150 97540,6917.846,95.437,540.465,538.958,0.0
53431.0,STARLINK-4548,PAYLOAD,2024-05-11 13:08:52,15.08959366,0.0001593,53.2155,218.6485,52.1799,307.9337,0.0045045,0.00072375,0.0,0 STARLINK-4548,1 53431U 22097AV  24132.54783133  .00072375  00000-0  45045-2 0  9996,2 53431  53.2155 218.6485 0001593  52.1799 307.9337 15.08959366 97598,6917.516,95.43,540.483,538.279,0.0
53431.0,STARLINK-4548,PAYLOAD,2024-05-11 16:19:38,15.08908006,0.0001242,53.2154,218.0578,118.5245,241.5872,0.0008203,0.00012815,0.0,0 STARLINK-4548,1 53431U 22097AV  24132.68030713  .00012815  00000-0  82030-3 0  9999,2 53431  53.2154 218.0578 0001242 118.5245 241.5872 15.08908006 97613,6917.673,95.433,540.397,538.678,0.0
53431.0,STARLINK-4548,PAYLOAD,2024-05-11 22:41:11,15.08829034,0.0001283,53.2148,216.8689,73.6026,286.5107,-0.0030184,-0.00047991,0.0,0 STARLINK-4548,1 53431U 22097AV  24132.94527581 -.00047991  00000-0 -30184-2 0  9999,2 53431  53.2148 216.8689 0001283  73.6026 286.5107 15.08829034 98139,6917.914,95.438,540.666,538.891,0.0
53431.0,STARLINK-4548,PAYLOAD,2024-05-12 12:59:44,15.08721383,0.0001056,53.2148,214.1918,88.2341,271.8772,1.2798e-05,-8.4e-07,0.0,0 STARLINK-4548,1 53431U 22097AV  24133.54148402 -.00000084  00000-0  12798-4 0  9991,2 53431  53.2148 214.1918 0001056  88.2341 271.8772 15.08721383 97744,6918.243,95.445,540.839,539.377,0.0
53431.0,STARLINK-4548,PAYLOAD,2024-05-12 14:35:07,15.08722935,0.0001051,53.214,213.897,133.5663,226.5417,0.0005257,8.062e-05,0.0,0 STARLINK-4548,1 53431U 22097AV  24133.60772734  .00008062  00000-0  52570-3 0  9993,2 53431  53.2140 213.8970 0001051 133.5663 226.5417 15.08722935 98238,6918.238,95.445,540.83,539.376,0.0
53431.0,STARLINK-4548,PAYLOAD,2024-05-12 22:32:03,15.08804662,7.32e-05,53.215,212.407,120.3978,239.7087,0.0025946,0.00041207,0.0,0 STARLINK-4548,1 53431U 22097AV  24133.93893108  .00041207  00000-0  25946-2 0  9992,2 53431  53.2150 212.4070 0000732 120.3978 239.7087 15.08804662 98285,6917.988,95.44,540.36,539.347,0.0
53431.0,STARLINK-4548,PAYLOAD,2024-05-13 04:53:36,15.08832529,0.000122,53.2148,211.2167,101.6413,258.4716,0.0023298,0.00036978,0.0,0 STARLINK-4548,1 53431U 22097AV  24134.20389489  .00036978  00000-0  23298-2 0  9992,2 53431  53.2148 211.2167 0001220 101.6413 258.4716 15.08832529 97846,6917.903,95.438,540.612,538.924,0.0
53431.0,STARLINK-4548,PAYLOAD,2024-05-13 11:15:08,15.0885937,0.0001396,53.2148,210.0279,96.8542,263.2609,0.0020978,0.00033274,0.0,0 STARLINK-4548,1 53431U 22097AV  24134.46885192  .00033274  00000-0  20978-2 0  9990,2 53431  53.2148 210.0279 0001396  96.8542 263.2609 15.08859370 98365,6917.821,95.436,540.652,538.72,0.0
